SENTINEL-6              
1 46984U 20086A   24046.88664451 -.00000050  00000+0  49098-4 0  9994
2 46984  66.0408 105.2913 0007839 270.5250  89.4867 12.80930795151166
